{"type":"FeatureCollection","source":"BIG RBI — administrative boundaries, not sample metrics","source_url":"https://geoservices.big.go.id/rbi/rest/services/BATASWILAYAH/BATAS_KECAMATAN_AR/MapServer/0/query?where=UPPER%28WADMKK%29+LIKE+%27%25JAKARTA+SELATAN%25%27&outFields=WADMKC%2CWADMKK&returnGeometry=true&outSR=4326&geometryPrecision=5&maxAllowableOffset=0.0002&f=geojson","retrieved_at":"2026-09-30T05:52:17.568Z","features":[{"type":"Feature","id":"tebet","geometry":{"type":"Polygon","coordinates":[[[106.84904,-6.20758,0],[106.84781,-6.20829,0],[106.84738,-6.20993,0],[106.84395,-6.21515,0],[106.84384,-6.21571,0],[106.84612,-6.22093,0],[106.8453,-6.22146,0],[106.83857,-6.22151,0],[106.83858,-6.22223,0],[106.83779,-6.22266,0],[106.83878,-6.2252,0],[106.8351,-6.22562,0],[106.83572,-6.22786,0],[106.8368,-6.23014,0],[106.83637,-6.23603,0],[106.83569,-6.23773,0],[106.83511,-6.23817,0],[106.83466,-6.2409,0],[106.84096,-6.24239,0],[106.84348,-6.24331,0],[106.86254,-6.24311,0],[106.86258,-6.24092,0],[106.86308,-6.23881,0],[106.86398,-6.23715,0],[106.86536,-6.23693,0],[106.86613,-6.23885,0],[106.86678,-6.23918,0],[106.86692,-6.23871,0],[106.8664,-6.23678,0],[106.86528,-6.23517,0],[106.86527,-6.23492,0],[106.86627,-6.23483,0],[106.86643,-6.23436,0],[106.86539,-6.23257,0],[106.86352,-6.23131,0],[106.86328,-6.23082,0],[106.8649,-6.22866,0],[106.86478,-6.22683,0],[106.86354,-6.22478,0],[106.86384,-6.22448,0],[106.86529,-6.22441,0],[106.86544,-6.22341,0],[106.86373,-6.22149,0],[106.86298,-6.21979,0],[106.86175,-6.21984,0],[106.86145,-6.22029,0],[106.86177,-6.2213,0],[106.86132,-6.22185,0],[106.8601,-6.22129,0],[106.86141,-6.21885,0],[106.86358,-6.21635,0],[106.86265,-6.21621,0],[106.86024,-6.2173,0],[106.85864,-6.2163,0],[106.85789,-6.21754,0],[106.85717,-6.21753,0],[106.85632,-6.21621,0],[106.85698,-6.21447,0],[106.85742,-6.2139,0],[106.85831,-6.21355,0],[106.85751,-6.2123,0],[106.85696,-6.21185,0],[106.85463,-6.21124,0],[106.85302,-6.20976,0],[106.85096,-6.2089,0],[106.84904,-6.20758,0]]]},"properties":{"zone_id":"tebet","zone_name":"Tebet","source":"BIG RBI","source_url":"https://geoservices.big.go.id/rbi/rest/services/BATASWILAYAH/BATAS_KECAMATAN_AR/MapServer/0/query"}},{"type":"Feature","id":"setiabudi","geometry":{"type":"Polygon","coordinates":[[[106.84664,-6.20866,0],[106.83732,-6.20539,0],[106.83082,-6.20447,0],[106.82275,-6.20267,0],[106.82182,-6.20863,0],[106.81978,-6.2129,0],[106.8179,-6.21505,0],[106.81239,-6.21942,0],[106.82187,-6.23306,0],[106.8325,-6.24009,0],[106.83466,-6.2409,0],[106.83511,-6.23817,0],[106.83569,-6.23773,0],[106.83637,-6.23603,0],[106.8368,-6.23014,0],[106.83572,-6.22786,0],[106.8351,-6.22562,0],[106.83878,-6.2252,0],[106.83779,-6.22266,0],[106.83858,-6.22223,0],[106.83857,-6.22151,0],[106.8453,-6.22146,0],[106.84612,-6.22093,0],[106.84384,-6.21571,0],[106.84414,-6.21465,0],[106.84738,-6.20993,0],[106.84793,-6.2085,0],[106.84781,-6.20829,0],[106.84664,-6.20866,0]]]},"properties":{"zone_id":"setiabudi","zone_name":"Setiabudi","source":"BIG RBI","source_url":"https://geoservices.big.go.id/rbi/rest/services/BATASWILAYAH/BATAS_KECAMATAN_AR/MapServer/0/query"}},{"type":"Feature","id":"mampang-prapatan","geometry":{"type":"Polygon","coordinates":[[[106.82076,-6.2317,0],[106.81709,-6.22633,0],[106.81671,-6.22657,0],[106.81714,-6.22724,0],[106.81656,-6.22805,0],[106.8173,-6.22989,0],[106.81676,-6.23208,0],[106.81747,-6.23214,0],[106.8178,-6.2331,0],[106.81752,-6.23377,0],[106.81786,-6.23535,0],[106.81857,-6.23594,0],[106.81799,-6.23841,0],[106.81643,-6.24107,0],[106.81618,-6.24088,0],[106.81577,-6.24167,0],[106.81603,-6.24226,0],[106.81567,-6.24234,0],[106.81555,-6.24325,0],[106.8152,-6.24287,0],[106.81475,-6.24299,0],[106.81466,-6.24393,0],[106.81381,-6.24479,0],[106.81383,-6.24553,0],[106.81315,-6.24559,0],[106.81265,-6.24673,0],[106.81216,-6.24676,0],[106.81193,-6.24725,0],[106.81153,-6.24719,0],[106.81058,-6.24788,0],[106.80949,-6.24915,0],[106.81035,-6.2507,0],[106.80897,-6.25232,0],[106.80914,-6.25291,0],[106.80857,-6.25313,0],[106.80832,-6.25573,0],[106.80914,-6.25645,0],[106.80899,-6.25739,0],[106.80937,-6.25773,0],[106.80918,-6.25805,0],[106.8095,-6.25883,0],[106.81063,-6.25926,0],[106.81033,-6.25966,0],[106.81044,-6.26012,0],[106.81103,-6.26074,0],[106.8114,-6.26059,0],[106.81166,-6.26131,0],[106.81146,-6.26167,0],[106.81203,-6.26231,0],[106.81146,-6.26273,0],[106.81185,-6.26315,0],[106.8117,-6.26348,0],[106.81224,-6.26369,0],[106.81253,-6.26498,0],[106.81332,-6.26583,0],[106.81287,-6.26718,0],[106.81245,-6.26732,0],[106.81206,-6.26862,0],[106.81228,-6.26899,0],[106.81172,-6.26953,0],[106.81145,-6.27046,0],[106.81297,-6.27197,0],[106.81388,-6.27219,0],[106.81391,-6.27306,0],[106.81465,-6.27293,0],[106.82105,-6.27428,0],[106.82182,-6.27162,0],[106.82304,-6.27144,0],[106.82374,-6.27076,0],[106.82394,-6.27114,0],[106.8252,-6.27135,0],[106.82458,-6.27018,0],[106.82468,-6.26956,0],[106.82564,-6.26867,0],[106.82537,-6.26765,0],[106.82653,-6.26618,0],[106.82735,-6.26646,0],[106.82763,-6.26563,0],[106.8266,-6.26554,0],[106.82582,-6.26119,0],[106.82457,-6.2604,0],[106.82496,-6.25974,0],[106.82611,-6.25971,0],[106.82635,-6.25933,0],[106.82628,-6.25872,0],[106.8248,-6.25808,0],[106.82472,-6.25591,0],[106.82527,-6.25471,0],[106.82433,-6.25457,0],[106.82385,-6.25385,0],[106.82337,-6.25396,0],[106.82302,-6.25312,0],[106.82706,-6.25288,0],[106.827,-6.25239,0],[106.83573,-6.2518,0],[106.83577,-6.25068,0],[106.8352,-6.24874,0],[106.83554,-6.24605,0],[106.83518,-6.24139,0],[106.83463,-6.24123,0],[106.83466,-6.2409,0],[106.83267,-6.24019,0],[106.82432,-6.23487,0],[106.82221,-6.23337,0],[106.82076,-6.2317,0]]]},"properties":{"zone_id":"mampang-prapatan","zone_name":"Mampang Prapatan","source":"BIG RBI","source_url":"https://geoservices.big.go.id/rbi/rest/services/BATASWILAYAH/BATAS_KECAMATAN_AR/MapServer/0/query"}},{"type":"Feature","id":"pasar-minggu","geometry":{"type":"Polygon","coordinates":[[[106.85204,-6.26227,0],[106.84324,-6.26259,0],[106.84335,-6.26417,0],[106.8442,-6.26595,0],[106.84396,-6.26602,0],[106.83486,-6.26599,0],[106.83496,-6.26841,0],[106.83211,-6.26835,0],[106.83286,-6.26899,0],[106.8325,-6.26932,0],[106.83268,-6.26983,0],[106.83212,-6.27105,0],[106.83241,-6.27128,0],[106.83242,-6.27249,0],[106.83211,-6.27267,0],[106.83254,-6.2745,0],[106.82871,-6.27493,0],[106.82914,-6.27425,0],[106.82861,-6.27196,0],[106.82916,-6.26949,0],[106.82763,-6.26563,0],[106.82735,-6.26646,0],[106.82653,-6.26618,0],[106.82537,-6.26765,0],[106.82564,-6.26867,0],[106.82468,-6.26956,0],[106.82458,-6.27018,0],[106.8252,-6.27135,0],[106.82394,-6.27114,0],[106.82374,-6.27076,0],[106.82304,-6.27144,0],[106.82182,-6.27162,0],[106.82105,-6.27428,0],[106.81465,-6.27293,0],[106.81391,-6.27306,0],[106.81381,-6.27381,0],[106.81421,-6.27516,0],[106.81402,-6.27593,0],[106.81344,-6.27593,0],[106.81294,-6.27633,0],[106.8127,-6.27835,0],[106.81193,-6.27919,0],[106.81141,-6.27916,0],[106.81077,-6.27965,0],[106.8105,-6.2809,0],[106.80935,-6.2822,0],[106.80976,-6.28587,0],[106.80916,-6.28594,0],[106.80903,-6.28689,0],[106.80848,-6.28749,0],[106.80866,-6.28903,0],[106.80831,-6.28984,0],[106.80624,-6.29076,0],[106.80501,-6.29325,0],[106.80536,-6.29423,0],[106.8062,-6.29446,0],[106.80689,-6.29565,0],[106.80561,-6.29669,0],[106.80501,-6.2981,0],[106.80522,-6.29845,0],[106.80601,-6.29849,0],[106.8061,-6.3004,0],[106.80704,-6.30277,0],[106.80834,-6.30339,0],[106.80922,-6.30504,0],[106.80915,-6.3056,0],[106.80844,-6.30571,0],[106.80861,-6.3066,0],[106.80823,-6.30684,0],[106.80854,-6.30814,0],[106.80701,-6.30867,0],[106.80683,-6.30903,0],[106.80771,-6.30923,0],[106.80826,-6.30994,0],[106.80852,-6.31051,0],[106.80797,-6.31105,0],[106.80916,-6.31169,0],[106.80965,-6.31096,0],[106.81028,-6.3108,0],[106.81614,-6.31065,0],[106.81628,-6.31598,0],[106.81654,-6.31606,0],[106.81636,-6.31685,0],[106.82099,-6.31755,0],[106.82359,-6.3174,0],[106.82365,-6.31775,0],[106.8248,-6.31782,0],[106.82539,-6.32006,0],[106.82528,-6.32151,0],[106.82914,-6.32204,0],[106.82938,-6.32121,0],[106.83197,-6.32145,0],[106.83385,-6.31838,0],[106.83421,-6.3181,0],[106.83522,-6.31838,0],[106.83591,-6.3162,0],[106.83731,-6.30572,0],[106.83716,-6.30325,0],[106.83661,-6.30177,0],[106.83978,-6.30302,0],[106.84083,-6.29528,0],[106.84369,-6.29609,0],[106.84459,-6.29686,0],[106.85098,-6.29794,0],[106.8521,-6.29791,0],[106.85054,-6.29676,0],[106.8504,-6.29622,0],[106.85076,-6.2958,0],[106.85215,-6.2957,0],[106.85398,-6.29618,0],[106.85432,-6.29592,0],[106.85407,-6.29389,0],[106.85346,-6.29388,0],[106.85256,-6.29476,0],[106.85231,-6.29447,0],[106.85417,-6.29173,0],[106.85439,-6.29043,0],[106.8538,-6.29034,0],[106.85182,-6.29113,0],[106.85127,-6.29284,0],[106.85068,-6.29286,0],[106.8501,-6.29235,0],[106.84936,-6.29044,0],[106.8508,-6.28974,0],[106.85122,-6.28839,0],[106.8503,-6.2879,0],[106.84989,-6.28845,0],[106.84912,-6.28847,0],[106.84809,-6.28773,0],[106.84757,-6.28666,0],[106.84739,-6.28537,0],[106.84883,-6.28369,0],[106.84849,-6.28342,0],[106.84775,-6.28353,0],[106.84754,-6.28309,0],[106.85034,-6.27962,0],[106.84777,-6.28004,0],[106.84672,-6.27904,0],[106.84828,-6.2778,0],[106.84919,-6.27659,0],[106.85041,-6.27681,0],[106.85161,-6.27625,0],[106.85193,-6.27515,0],[106.85133,-6.27364,0],[106.85204,-6.27321,0],[106.8534,-6.27329,0],[106.85363,-6.27195,0],[106.85438,-6.27198,0],[106.85548,-6.27263,0],[106.85653,-6.27274,0],[106.85681,-6.27242,0],[106.85647,-6.27167,0],[106.85488,-6.27047,0],[106.85514,-6.26961,0],[106.85567,-6.27034,0],[106.85626,-6.27055,0],[106.85658,-6.2703,0],[106.85545,-6.26669,0],[106.85002,-6.26682,0],[106.85204,-6.26227,0]]]},"properties":{"zone_id":"pasar-minggu","zone_name":"Pasar Minggu","source":"BIG RBI","source_url":"https://geoservices.big.go.id/rbi/rest/services/BATASWILAYAH/BATAS_KECAMATAN_AR/MapServer/0/query"}},{"type":"Feature","id":"kebayoran-lama","geometry":{"type":"Polygon","coordinates":[[[106.78907,-6.20847,0],[106.78727,-6.20699,0],[106.78321,-6.2067,0],[106.7836,-6.21185,0],[106.78333,-6.21275,0],[106.7825,-6.2133,0],[106.77771,-6.21368,0],[106.77762,-6.21515,0],[106.77708,-6.21656,0],[106.77728,-6.21697,0],[106.77837,-6.21749,0],[106.7785,-6.21791,0],[106.77843,-6.22691,0],[106.76751,-6.22748,0],[106.76478,-6.22709,0],[106.76452,-6.22755,0],[106.76493,-6.22866,0],[106.76476,-6.22912,0],[106.76417,-6.22911,0],[106.764,-6.2297,0],[106.76309,-6.22995,0],[106.76355,-6.23052,0],[106.76479,-6.22952,0],[106.76525,-6.22949,0],[106.76585,-6.23023,0],[106.76587,-6.23097,0],[106.76415,-6.23331,0],[106.76476,-6.235,0],[106.76543,-6.2347,0],[106.76599,-6.23379,0],[106.76638,-6.2338,0],[106.76716,-6.23497,0],[106.76719,-6.23615,0],[106.76684,-6.23674,0],[106.76503,-6.23674,0],[106.76444,-6.23754,0],[106.76459,-6.2388,0],[106.76523,-6.23895,0],[106.76567,-6.2382,0],[106.76614,-6.23831,0],[106.76589,-6.2389,0],[106.76664,-6.23981,0],[106.76642,-6.24013,0],[106.76589,-6.23983,0],[106.76562,-6.24159,0],[106.76737,-6.24237,0],[106.76813,-6.24321,0],[106.76822,-6.24472,0],[106.76883,-6.24572,0],[106.7684,-6.24674,0],[106.7667,-6.24824,0],[106.76668,-6.2491,0],[106.7676,-6.24988,0],[106.76763,-6.25028,0],[106.76632,-6.25157,0],[106.76618,-6.25227,0],[106.7666,-6.25275,0],[106.76791,-6.25308,0],[106.76762,-6.2543,0],[106.76819,-6.25531,0],[106.76844,-6.25536,0],[106.76881,-6.25446,0],[106.77009,-6.25428,0],[106.77046,-6.25474,0],[106.77157,-6.25484,0],[106.772,-6.2553,0],[106.772,-6.25572,0],[106.77136,-6.25617,0],[106.77004,-6.25616,0],[106.76905,-6.25804,0],[106.77021,-6.25834,0],[106.7703,-6.25885,0],[106.77069,-6.25897,0],[106.77124,-6.25827,0],[106.77226,-6.25824,0],[106.77276,-6.25908,0],[106.77253,-6.26041,0],[106.7731,-6.26251,0],[106.7723,-6.26296,0],[106.77169,-6.26241,0],[106.7706,-6.26323,0],[106.77138,-6.26451,0],[106.77145,-6.26532,0],[106.771,-6.26528,0],[106.77017,-6.26448,0],[106.76949,-6.26484,0],[106.76932,-6.26542,0],[106.7692,-6.26615,0],[106.76967,-6.26723,0],[106.76915,-6.26815,0],[106.76988,-6.26958,0],[106.77124,-6.27027,0],[106.77094,-6.27154,0],[106.77167,-6.27225,0],[106.7705,-6.27435,0],[106.7692,-6.27373,0],[106.76879,-6.27376,0],[106.76839,-6.27434,0],[106.76843,-6.27471,0],[106.76937,-6.27546,0],[106.76937,-6.27626,0],[106.77008,-6.27703,0],[106.77036,-6.27814,0],[106.76936,-6.27804,0],[106.76762,-6.27934,0],[106.76812,-6.28044,0],[106.76926,-6.28096,0],[106.76952,-6.28144,0],[106.76912,-6.28176,0],[106.76839,-6.28154,0],[106.76773,-6.28195,0],[106.76724,-6.28275,0],[106.76568,-6.28405,0],[106.76608,-6.28459,0],[106.76733,-6.28505,0],[106.76802,-6.28604,0],[106.7679,-6.28646,0],[106.76697,-6.28608,0],[106.7662,-6.28659,0],[106.76732,-6.28846,0],[106.76607,-6.28906,0],[106.76643,-6.28936,0],[106.76663,-6.29065,0],[106.76928,-6.28926,0],[106.77639,-6.28927,0],[106.77808,-6.28842,0],[106.78038,-6.2903,0],[106.78437,-6.29165,0],[106.78569,-6.28962,0],[106.78506,-6.28808,0],[106.78719,-6.28514,0],[106.78841,-6.28422,0],[106.79009,-6.28149,0],[106.79023,-6.27887,0],[106.78968,-6.27788,0],[106.78962,-6.27611,0],[106.79013,-6.27469,0],[106.79152,-6.27315,0],[106.7913,-6.27014,0],[106.79058,-6.26866,0],[106.78976,-6.2692,0],[106.78907,-6.26848,0],[106.78731,-6.26785,0],[106.78647,-6.26608,0],[106.78536,-6.26538,0],[106.78519,-6.26145,0],[106.78553,-6.26096,0],[106.78494,-6.26038,0],[106.78535,-6.26004,0],[106.7855,-6.25917,0],[106.78484,-6.25839,0],[106.78512,-6.25727,0],[106.78561,-6.25685,0],[106.7863,-6.25679,0],[106.78583,-6.25526,0],[106.78621,-6.25401,0],[106.78785,-6.25337,0],[106.78779,-6.25305,0],[106.78866,-6.25191,0],[106.78848,-6.25169,0],[106.78891,-6.25106,0],[106.78838,-6.24988,0],[106.7889,-6.2487,0],[106.78857,-6.24836,0],[106.78908,-6.24826,0],[106.78892,-6.24773,0],[106.78919,-6.24736,0],[106.78866,-6.24726,0],[106.78868,-6.24668,0],[106.78769,-6.24512,0],[106.78766,-6.24423,0],[106.7869,-6.24427,0],[106.78677,-6.24352,0],[106.78477,-6.24281,0],[106.78412,-6.24164,0],[106.78475,-6.24119,0],[106.78497,-6.239,0],[106.78542,-6.23869,0],[106.78496,-6.23796,0],[106.78491,-6.23717,0],[106.78622,-6.23539,0],[106.78675,-6.23531,0],[106.78678,-6.23484,0],[106.78745,-6.23413,0],[106.78822,-6.23409,0],[106.78894,-6.23381,0],[106.78897,-6.23341,0],[106.78988,-6.2333,0],[106.79196,-6.23069,0],[106.79365,-6.23081,0],[106.79473,-6.23002,0],[106.7956,-6.2304,0],[106.79586,-6.22965,0],[106.79572,-6.22815,0],[106.79641,-6.22644,0],[106.79606,-6.22354,0],[106.79691,-6.21872,0],[106.79612,-6.21646,0],[106.79626,-6.21562,0],[106.79534,-6.21354,0],[106.79582,-6.21245,0],[106.7946,-6.21185,0],[106.79344,-6.21171,0],[106.79376,-6.21139,0],[106.79366,-6.21084,0],[106.79273,-6.21028,0],[106.79257,-6.20928,0],[106.79188,-6.20883,0],[106.79244,-6.20779,0],[106.79053,-6.20748,0],[106.78907,-6.20847,0]]]},"properties":{"zone_id":"kebayoran-lama","zone_name":"Kebayoran Lama","source":"BIG RBI","source_url":"https://geoservices.big.go.id/rbi/rest/services/BATASWILAYAH/BATAS_KECAMATAN_AR/MapServer/0/query"}},{"type":"Feature","id":"cilandak","geometry":{"type":"Polygon","coordinates":[[[106.78881,-6.26362,0],[106.78527,-6.26299,0],[106.78533,-6.26529,0],[106.78647,-6.26608,0],[106.7874,-6.26791,0],[106.78907,-6.26848,0],[106.78976,-6.2692,0],[106.79036,-6.26865,0],[106.7907,-6.26878,0],[106.7913,-6.27014,0],[106.79152,-6.27313,0],[106.79013,-6.27469,0],[106.78966,-6.27588,0],[106.7896,-6.27746,0],[106.79021,-6.27879,0],[106.7903,-6.27991,0],[106.79006,-6.28158,0],[106.78841,-6.28422,0],[106.78719,-6.28514,0],[106.78506,-6.28808,0],[106.7857,-6.2896,0],[106.78495,-6.29099,0],[106.78437,-6.29165,0],[106.78088,-6.29049,0],[106.77945,-6.28976,0],[106.77808,-6.28842,0],[106.77639,-6.28927,0],[106.76928,-6.28926,0],[106.76663,-6.29065,0],[106.76707,-6.29147,0],[106.76784,-6.29153,0],[106.76816,-6.29186,0],[106.76752,-6.29234,0],[106.76829,-6.29339,0],[106.76709,-6.29507,0],[106.7682,-6.29589,0],[106.77015,-6.29562,0],[106.76977,-6.29751,0],[106.77023,-6.29771,0],[106.77073,-6.29731,0],[106.77124,-6.299,0],[106.77308,-6.29817,0],[106.77377,-6.29854,0],[106.77395,-6.29911,0],[106.7737,-6.29951,0],[106.77229,-6.29918,0],[106.77148,-6.29948,0],[106.7724,-6.30006,0],[106.77315,-6.30151,0],[106.77133,-6.30166,0],[106.77088,-6.30214,0],[106.77154,-6.3032,0],[106.77348,-6.30308,0],[106.77304,-6.30476,0],[106.77357,-6.30463,0],[106.77451,-6.30326,0],[106.77558,-6.30397,0],[106.77552,-6.30447,0],[106.7748,-6.30488,0],[106.77549,-6.30616,0],[106.77435,-6.3063,0],[106.77391,-6.30672,0],[106.77498,-6.30834,0],[106.77329,-6.30961,0],[106.77533,-6.3104,0],[106.77445,-6.3113,0],[106.77469,-6.31222,0],[106.77555,-6.31163,0],[106.7766,-6.31189,0],[106.77642,-6.31321,0],[106.77684,-6.31529,0],[106.77918,-6.31576,0],[106.78,-6.31658,0],[106.78285,-6.31588,0],[106.78327,-6.31661,0],[106.78436,-6.31643,0],[106.78477,-6.31553,0],[106.78548,-6.31585,0],[106.78581,-6.31564,0],[106.78871,-6.31587,0],[106.78964,-6.31628,0],[106.79018,-6.31494,0],[106.79054,-6.31477,0],[106.79271,-6.31582,0],[106.79315,-6.31581,0],[106.79313,-6.31543,0],[106.79576,-6.31515,0],[106.80099,-6.31508,0],[106.80124,-6.31532,0],[106.80921,-6.31484,0],[106.80898,-6.31404,0],[106.80793,-6.31324,0],[106.8084,-6.3126,0],[106.80792,-6.31113,0],[106.80852,-6.31051,0],[106.80771,-6.30923,0],[106.80683,-6.30909,0],[106.80701,-6.30867,0],[106.80854,-6.30814,0],[106.80823,-6.30684,0],[106.80861,-6.3066,0],[106.80844,-6.30571,0],[106.80915,-6.3056,0],[106.80922,-6.30504,0],[106.80834,-6.30339,0],[106.80704,-6.30277,0],[106.8061,-6.3004,0],[106.80601,-6.29849,0],[106.80522,-6.29845,0],[106.80501,-6.2981,0],[106.80561,-6.29669,0],[106.80689,-6.29565,0],[106.8062,-6.29446,0],[106.80536,-6.29423,0],[106.80501,-6.29325,0],[106.80624,-6.29076,0],[106.80728,-6.29009,0],[106.80799,-6.29019,0],[106.80828,-6.28992,0],[106.80866,-6.28903,0],[106.80848,-6.28749,0],[106.80903,-6.28689,0],[106.80916,-6.28594,0],[106.80976,-6.28587,0],[106.80935,-6.2822,0],[106.8105,-6.2809,0],[106.81077,-6.27965,0],[106.81141,-6.27916,0],[106.81193,-6.27919,0],[106.8127,-6.27835,0],[106.81294,-6.27633,0],[106.81404,-6.27588,0],[106.81421,-6.27516,0],[106.81381,-6.27381,0],[106.81388,-6.27219,0],[106.81297,-6.27197,0],[106.81145,-6.27046,0],[106.81172,-6.26953,0],[106.81228,-6.26899,0],[106.81206,-6.26862,0],[106.81245,-6.26732,0],[106.81294,-6.26704,0],[106.81004,-6.26656,0],[106.80996,-6.26597,0],[106.80445,-6.26631,0],[106.80447,-6.26662,0],[106.80287,-6.26689,0],[106.80026,-6.26674,0],[106.80014,-6.26583,0],[106.79738,-6.26571,0],[106.79719,-6.2639,0],[106.79448,-6.2636,0],[106.79423,-6.26431,0],[106.78881,-6.26362,0]]]},"properties":{"zone_id":"cilandak","zone_name":"Cilandak","source":"BIG RBI","source_url":"https://geoservices.big.go.id/rbi/rest/services/BATASWILAYAH/BATAS_KECAMATAN_AR/MapServer/0/query"}},{"type":"Feature","id":"kebayoran-baru","geometry":{"type":"Polygon","coordinates":[[[106.81714,-6.22912,0],[106.81656,-6.22805,0],[106.81714,-6.22724,0],[106.81668,-6.2267,0],[106.81709,-6.22633,0],[106.81239,-6.21942,0],[106.79947,-6.22922,0],[106.79853,-6.2288,0],[106.79753,-6.22932,0],[106.79586,-6.22926,0],[106.79556,-6.23044,0],[106.79473,-6.23002,0],[106.79365,-6.23081,0],[106.79196,-6.23069,0],[106.79017,-6.23306,0],[106.78897,-6.23341,0],[106.78894,-6.23381,0],[106.78747,-6.23412,0],[106.78678,-6.23484,0],[106.78675,-6.23531,0],[106.7862,-6.23541,0],[106.7849,-6.2372,0],[106.78542,-6.23869,0],[106.78497,-6.239,0],[106.78475,-6.24119,0],[106.78412,-6.24164,0],[106.78477,-6.24281,0],[106.78677,-6.24352,0],[106.7869,-6.24427,0],[106.78766,-6.24423,0],[106.78769,-6.24512,0],[106.78868,-6.24668,0],[106.78866,-6.24726,0],[106.78919,-6.24736,0],[106.78892,-6.24773,0],[106.78908,-6.24826,0],[106.78857,-6.24836,0],[106.7889,-6.2487,0],[106.78838,-6.24988,0],[106.78891,-6.25106,0],[106.78848,-6.25169,0],[106.78866,-6.25191,0],[106.78779,-6.25305,0],[106.78785,-6.25337,0],[106.78621,-6.25401,0],[106.78583,-6.25526,0],[106.7863,-6.25679,0],[106.78561,-6.25685,0],[106.78506,-6.25736,0],[106.78484,-6.25839,0],[106.7855,-6.25917,0],[106.78535,-6.26004,0],[106.78494,-6.26038,0],[106.78553,-6.26096,0],[106.78519,-6.26145,0],[106.78527,-6.26299,0],[106.79423,-6.26431,0],[106.79448,-6.2636,0],[106.79719,-6.2639,0],[106.79738,-6.26571,0],[106.80014,-6.26583,0],[106.80026,-6.26674,0],[106.80287,-6.26689,0],[106.80447,-6.26662,0],[106.80445,-6.26631,0],[106.80996,-6.26597,0],[106.81004,-6.26656,0],[106.81294,-6.26704,0],[106.81332,-6.26583,0],[106.81253,-6.26498,0],[106.81224,-6.26369,0],[106.8117,-6.26348,0],[106.81185,-6.26315,0],[106.81148,-6.26266,0],[106.81203,-6.26237,0],[106.81146,-6.26167,0],[106.81153,-6.26086,0],[106.81044,-6.26012,0],[106.81033,-6.25966,0],[106.81063,-6.25926,0],[106.8095,-6.25883,0],[106.80918,-6.25805,0],[106.80937,-6.25773,0],[106.80899,-6.25739,0],[106.80914,-6.25645,0],[106.80833,-6.25577,0],[106.80857,-6.25313,0],[106.80914,-6.25291,0],[106.80897,-6.25232,0],[106.81035,-6.2507,0],[106.80949,-6.24915,0],[106.81058,-6.24788,0],[106.81153,-6.24719,0],[106.81193,-6.24725,0],[106.81216,-6.24676,0],[106.81265,-6.24673,0],[106.81315,-6.24559,0],[106.81383,-6.24553,0],[106.81381,-6.24479,0],[106.81466,-6.24393,0],[106.81475,-6.24299,0],[106.8152,-6.24287,0],[106.81555,-6.24325,0],[106.81567,-6.24234,0],[106.81603,-6.24226,0],[106.81577,-6.24167,0],[106.81618,-6.24088,0],[106.81643,-6.24107,0],[106.81796,-6.23852,0],[106.81857,-6.23594,0],[106.81786,-6.23535,0],[106.81752,-6.23377,0],[106.8178,-6.2331,0],[106.81747,-6.23214,0],[106.81676,-6.23208,0],[106.8173,-6.22989,0],[106.81714,-6.22912,0]]]},"properties":{"zone_id":"kebayoran-baru","zone_name":"Kebayoran Baru","source":"BIG RBI","source_url":"https://geoservices.big.go.id/rbi/rest/services/BATASWILAYAH/BATAS_KECAMATAN_AR/MapServer/0/query"}},{"type":"Feature","id":"pancoran","geometry":{"type":"Polygon","coordinates":[[[106.84595,-6.24346,0],[106.843,-6.24322,0],[106.84096,-6.24239,0],[106.83466,-6.2409,0],[106.83463,-6.24123,0],[106.83518,-6.24139,0],[106.83554,-6.24605,0],[106.8352,-6.24874,0],[106.83576,-6.25047,0],[106.83573,-6.2518,0],[106.827,-6.25239,0],[106.82706,-6.25288,0],[106.82302,-6.25312,0],[106.82337,-6.25396,0],[106.82385,-6.25385,0],[106.82433,-6.25457,0],[106.82527,-6.25471,0],[106.82472,-6.25591,0],[106.8248,-6.25808,0],[106.82628,-6.25872,0],[106.82635,-6.25933,0],[106.82611,-6.25971,0],[106.82496,-6.25974,0],[106.82457,-6.2604,0],[106.82582,-6.26119,0],[106.82632,-6.26495,0],[106.82664,-6.26558,0],[106.8278,-6.26568,0],[106.82915,-6.26944,0],[106.82861,-6.27196,0],[106.82914,-6.27425,0],[106.82871,-6.27493,0],[106.83072,-6.27489,0],[106.83263,-6.27442,0],[106.83231,-6.27403,0],[106.83249,-6.27359,0],[106.83211,-6.27267,0],[106.83242,-6.27249,0],[106.83241,-6.27128,0],[106.83212,-6.27105,0],[106.83268,-6.26983,0],[106.8325,-6.26932,0],[106.83286,-6.26899,0],[106.83211,-6.26835,0],[106.83496,-6.26841,0],[106.83486,-6.26599,0],[106.84245,-6.26616,0],[106.8442,-6.26595,0],[106.84335,-6.26417,0],[106.84324,-6.26259,0],[106.85209,-6.26215,0],[106.85002,-6.26682,0],[106.85545,-6.26669,0],[106.85526,-6.26607,0],[106.85403,-6.26534,0],[106.85403,-6.26484,0],[106.85693,-6.26424,0],[106.85717,-6.26394,0],[106.85452,-6.26274,0],[106.85427,-6.26232,0],[106.85473,-6.26192,0],[106.8554,-6.2618,0],[106.85688,-6.26286,0],[106.85922,-6.26283,0],[106.86049,-6.25758,0],[106.86031,-6.25715,0],[106.85942,-6.25702,0],[106.85933,-6.25676,0],[106.86075,-6.25529,0],[106.8604,-6.25468,0],[106.85962,-6.2544,0],[106.85789,-6.25528,0],[106.8576,-6.255,0],[106.8576,-6.25404,0],[106.85803,-6.25251,0],[106.85903,-6.25146,0],[106.86014,-6.25099,0],[106.86064,-6.25146,0],[106.86123,-6.25407,0],[106.86276,-6.25346,0],[106.86288,-6.25303,0],[106.86217,-6.25061,0],[106.86404,-6.24945,0],[106.86206,-6.24639,0],[106.86254,-6.24311,0],[106.84595,-6.24346,0]]]},"properties":{"zone_id":"pancoran","zone_name":"Pancoran","source":"BIG RBI","source_url":"https://geoservices.big.go.id/rbi/rest/services/BATASWILAYAH/BATAS_KECAMATAN_AR/MapServer/0/query"}},{"type":"Feature","id":"jagakarsa","geometry":{"type":"Polygon","coordinates":[[[106.84083,-6.29528,0],[106.83978,-6.30302,0],[106.83661,-6.30177,0],[106.83716,-6.30325,0],[106.83731,-6.30572,0],[106.83591,-6.3162,0],[106.83522,-6.31838,0],[106.83421,-6.3181,0],[106.83385,-6.31838,0],[106.83197,-6.32145,0],[106.82938,-6.32121,0],[106.82914,-6.32204,0],[106.82528,-6.32151,0],[106.82539,-6.32006,0],[106.8248,-6.31782,0],[106.82365,-6.31775,0],[106.82359,-6.3174,0],[106.82099,-6.31755,0],[106.81636,-6.31685,0],[106.81654,-6.31606,0],[106.81628,-6.31598,0],[106.81613,-6.31065,0],[106.81028,-6.3108,0],[106.80965,-6.31096,0],[106.80916,-6.31169,0],[106.80793,-6.31109,0],[106.8084,-6.3126,0],[106.80793,-6.31327,0],[106.80899,-6.31406,0],[106.80924,-6.31551,0],[106.80907,-6.31607,0],[106.80856,-6.31619,0],[106.80875,-6.31677,0],[106.80778,-6.31738,0],[106.80779,-6.31841,0],[106.80815,-6.31884,0],[106.80731,-6.31942,0],[106.80757,-6.32,0],[106.80734,-6.32093,0],[106.80646,-6.32139,0],[106.80723,-6.3219,0],[106.8072,-6.32252,0],[106.80603,-6.32273,0],[106.80636,-6.32373,0],[106.80501,-6.32365,0],[106.80451,-6.32505,0],[106.8041,-6.32521,0],[106.80423,-6.32685,0],[106.80339,-6.32779,0],[106.80361,-6.32976,0],[106.80228,-6.33114,0],[106.80129,-6.33166,0],[106.80186,-6.33228,0],[106.8018,-6.33341,0],[106.80099,-6.33363,0],[106.79908,-6.33311,0],[106.79869,-6.33822,0],[106.79981,-6.33952,0],[106.80017,-6.34094,0],[106.79959,-6.34135,0],[106.79982,-6.342,0],[106.7993,-6.34268,0],[106.79949,-6.34305,0],[106.79899,-6.34325,0],[106.79895,-6.34396,0],[106.7983,-6.34427,0],[106.79822,-6.34471,0],[106.79742,-6.34489,0],[106.79731,-6.34574,0],[106.79669,-6.34653,0],[106.79623,-6.34659,0],[106.7954,-6.34597,0],[106.79428,-6.34656,0],[106.79241,-6.34838,0],[106.79301,-6.34954,0],[106.79351,-6.34967,0],[106.79404,-6.35097,0],[106.79378,-6.35142,0],[106.79306,-6.35153,0],[106.79249,-6.35235,0],[106.79328,-6.35322,0],[106.79325,-6.35394,0],[106.7938,-6.35403,0],[106.79402,-6.35441,0],[106.79309,-6.35507,0],[106.79322,-6.35687,0],[106.79297,-6.3578,0],[106.79252,-6.35798,0],[106.79249,-6.35858,0],[106.79253,-6.35923,0],[106.79362,-6.36005,0],[106.79368,-6.36244,0],[106.79314,-6.36271,0],[106.79297,-6.36331,0],[106.79371,-6.36384,0],[106.79384,-6.36433,0],[106.79438,-6.36418,0],[106.79458,-6.36459,0],[106.80023,-6.36442,0],[106.80035,-6.36474,0],[106.80077,-6.36468,0],[106.80072,-6.36438,0],[106.80331,-6.3636,0],[106.80564,-6.36345,0],[106.81032,-6.364,0],[106.81054,-6.36319,0],[106.81136,-6.36252,0],[106.8112,-6.36222,0],[106.81177,-6.36254,0],[106.81248,-6.36151,0],[106.81261,-6.36074,0],[106.81356,-6.36016,0],[106.81359,-6.35905,0],[106.81504,-6.35943,0],[106.81543,-6.35696,0],[106.81598,-6.35611,0],[106.81839,-6.35659,0],[106.81934,-6.3557,0],[106.81981,-6.3561,0],[106.82025,-6.35585,0],[106.82101,-6.35619,0],[106.82156,-6.35562,0],[106.82392,-6.3561,0],[106.82407,-6.35565,0],[106.82811,-6.35603,0],[106.82908,-6.35566,0],[106.83629,-6.35508,0],[106.83583,-6.35416,0],[106.83593,-6.35295,0],[106.83551,-6.3519,0],[106.83868,-6.35207,0],[106.83923,-6.35177,0],[106.83913,-6.35062,0],[106.83805,-6.34928,0],[106.83812,-6.34805,0],[106.83766,-6.3471,0],[106.83789,-6.34666,0],[106.83877,-6.34656,0],[106.83932,-6.34606,0],[106.83977,-6.34461,0],[106.83971,-6.34377,0],[106.83913,-6.34334,0],[106.83803,-6.34334,0],[106.83649,-6.3448,0],[106.83567,-6.34456,0],[106.8355,-6.34404,0],[106.83682,-6.34214,0],[106.83812,-6.34124,0],[106.83963,-6.34251,0],[106.84045,-6.34259,0],[106.84087,-6.34233,0],[106.84063,-6.34099,0],[106.83947,-6.34088,0],[106.83926,-6.34034,0],[106.84036,-6.33843,0],[106.84044,-6.33624,0],[106.83969,-6.33509,0],[106.83985,-6.33283,0],[106.84019,-6.33219,0],[106.84244,-6.33222,0],[106.84347,-6.33159,0],[106.84192,-6.33094,0],[106.84021,-6.32931,0],[106.84131,-6.32678,0],[106.84202,-6.32765,0],[106.84298,-6.32709,0],[106.843,-6.32571,0],[106.84144,-6.32355,0],[106.84005,-6.32276,0],[106.84015,-6.32208,0],[106.84095,-6.32166,0],[106.84082,-6.32134,0],[106.83889,-6.32162,0],[106.83833,-6.32082,0],[106.84008,-6.31855,0],[106.84232,-6.31799,0],[106.84366,-6.31849,0],[106.84409,-6.31796,0],[106.84428,-6.31665,0],[106.84633,-6.31695,0],[106.84714,-6.3157,0],[106.84808,-6.31515,0],[106.8487,-6.31528,0],[106.8489,-6.31566,0],[106.84853,-6.31709,0],[106.84805,-6.31751,0],[106.847,-6.31766,0],[106.84684,-6.31809,0],[106.84937,-6.31877,0],[106.84951,-6.31751,0],[106.85179,-6.31598,0],[106.85124,-6.31463,0],[106.85223,-6.31263,0],[106.85244,-6.31105,0],[106.85284,-6.31102,0],[106.85464,-6.31238,0],[106.855,-6.31387,0],[106.85583,-6.3136,0],[106.8581,-6.31156,0],[106.85827,-6.3108,0],[106.85727,-6.31074,0],[106.85683,-6.31002,0],[106.85771,-6.30786,0],[106.8574,-6.3064,0],[106.85855,-6.30568,0],[106.85819,-6.30503,0],[106.85619,-6.3042,0],[106.85463,-6.30308,0],[106.85443,-6.30251,0],[106.85504,-6.30133,0],[106.85471,-6.2995,0],[106.8525,-6.29992,0],[106.85168,-6.30111,0],[106.84989,-6.29978,0],[106.8496,-6.29897,0],[106.84992,-6.29873,0],[106.85148,-6.29935,0],[106.85198,-6.29922,0],[106.8521,-6.29791,0],[106.84899,-6.29775,0],[106.84483,-6.29692,0],[106.84369,-6.29609,0],[106.84083,-6.29528,0]]]},"properties":{"zone_id":"jagakarsa","zone_name":"Jagakarsa","source":"BIG RBI","source_url":"https://geoservices.big.go.id/rbi/rest/services/BATASWILAYAH/BATAS_KECAMATAN_AR/MapServer/0/query"}},{"type":"Feature","id":"pesanggrahan","geometry":{"type":"Polygon","coordinates":[[[106.76471,-6.2224,0],[106.7584,-6.22256,0],[106.7584,-6.2229,0],[106.75788,-6.22294,0],[106.74992,-6.22272,0],[106.74506,-6.22327,0],[106.74438,-6.22292,0],[106.73743,-6.22388,0],[106.73777,-6.22539,0],[106.73956,-6.22537,0],[106.73978,-6.2262,0],[106.7404,-6.22623,0],[106.74033,-6.22766,0],[106.74156,-6.22777,0],[106.74266,-6.22729,0],[106.74331,-6.22756,0],[106.74326,-6.22877,0],[106.74442,-6.22903,0],[106.7439,-6.2305,0],[106.74545,-6.23083,0],[106.7454,-6.2318,0],[106.74448,-6.23229,0],[106.74479,-6.23383,0],[106.744,-6.23649,0],[106.74683,-6.23639,0],[106.74745,-6.2388,0],[106.74864,-6.24084,0],[106.74729,-6.2426,0],[106.74666,-6.24731,0],[106.74723,-6.24874,0],[106.74817,-6.24951,0],[106.7482,-6.25008,0],[106.75184,-6.25004,0],[106.75196,-6.25108,0],[106.75256,-6.25167,0],[106.75357,-6.25164,0],[106.75358,-6.2528,0],[106.75425,-6.25411,0],[106.75416,-6.25535,0],[106.75483,-6.25583,0],[106.75494,-6.25657,0],[106.75487,-6.25702,0],[106.7545,-6.25697,0],[106.75438,-6.25954,0],[106.7525,-6.25974,0],[106.75157,-6.26058,0],[106.75148,-6.26177,0],[106.75351,-6.26228,0],[106.75632,-6.26161,0],[106.75652,-6.26245,0],[106.75568,-6.26265,0],[106.75488,-6.2635,0],[106.75248,-6.26466,0],[106.75278,-6.26618,0],[106.7526,-6.26778,0],[106.75231,-6.26802,0],[106.75318,-6.26886,0],[106.75062,-6.27151,0],[106.75153,-6.27242,0],[106.75153,-6.27454,0],[106.75691,-6.27429,0],[106.7572,-6.27527,0],[106.75717,-6.27763,0],[106.75947,-6.27815,0],[106.7622,-6.27784,0],[106.76147,-6.28181,0],[106.76011,-6.28644,0],[106.76297,-6.28688,0],[106.7631,-6.2888,0],[106.76624,-6.28887,0],[106.76732,-6.28846,0],[106.7662,-6.28659,0],[106.76697,-6.28608,0],[106.7679,-6.28646,0],[106.76803,-6.2861,0],[106.76733,-6.28505,0],[106.76608,-6.28459,0],[106.76571,-6.28397,0],[106.76671,-6.28329,0],[106.76773,-6.28195,0],[106.76839,-6.28154,0],[106.76912,-6.28176,0],[106.76952,-6.28144,0],[106.76926,-6.28096,0],[106.76808,-6.28039,0],[106.76771,-6.27907,0],[106.76856,-6.27884,0],[106.76939,-6.27803,0],[106.77036,-6.27814,0],[106.77008,-6.27703,0],[106.76937,-6.27626,0],[106.76937,-6.27546,0],[106.76843,-6.27471,0],[106.76839,-6.27434,0],[106.76879,-6.27376,0],[106.7692,-6.27373,0],[106.7705,-6.27435,0],[106.77167,-6.27225,0],[106.77094,-6.27154,0],[106.77124,-6.27027,0],[106.76988,-6.26958,0],[106.76915,-6.26815,0],[106.76967,-6.26723,0],[106.7692,-6.26615,0],[106.76937,-6.26521,0],[106.77017,-6.26448,0],[106.771,-6.26528,0],[106.77145,-6.26532,0],[106.77138,-6.26451,0],[106.7706,-6.26323,0],[106.77169,-6.26241,0],[106.7723,-6.26296,0],[106.7731,-6.26251,0],[106.77253,-6.26041,0],[106.77276,-6.25908,0],[106.77226,-6.25824,0],[106.77124,-6.25827,0],[106.77069,-6.25897,0],[106.7703,-6.25885,0],[106.77021,-6.25834,0],[106.76905,-6.25804,0],[106.77004,-6.25616,0],[106.77136,-6.25617,0],[106.772,-6.25572,0],[106.772,-6.2553,0],[106.77157,-6.25484,0],[106.77046,-6.25474,0],[106.77009,-6.25428,0],[106.76881,-6.25446,0],[106.76844,-6.25536,0],[106.76819,-6.25531,0],[106.76762,-6.2543,0],[106.76791,-6.25308,0],[106.7666,-6.25275,0],[106.76616,-6.2522,0],[106.76632,-6.25157,0],[106.76763,-6.25028,0],[106.7676,-6.24988,0],[106.76668,-6.2491,0],[106.7667,-6.24824,0],[106.7684,-6.24674,0],[106.76883,-6.24579,0],[106.76822,-6.24472,0],[106.76813,-6.24321,0],[106.76737,-6.24237,0],[106.76562,-6.24159,0],[106.76589,-6.23983,0],[106.76642,-6.24013,0],[106.76664,-6.23981,0],[106.76589,-6.2389,0],[106.76614,-6.23831,0],[106.76567,-6.2382,0],[106.76523,-6.23895,0],[106.76459,-6.2388,0],[106.76447,-6.23746,0],[106.76508,-6.23672,0],[106.76691,-6.2367,0],[106.76722,-6.23533,0],[106.76626,-6.23373,0],[106.76537,-6.23476,0],[106.76469,-6.23497,0],[106.76416,-6.23337,0],[106.76471,-6.23224,0],[106.7659,-6.2309,0],[106.76561,-6.22979,0],[106.76479,-6.22952,0],[106.76355,-6.23052,0],[106.76309,-6.23003,0],[106.764,-6.2297,0],[106.76417,-6.22911,0],[106.76476,-6.22912,0],[106.76493,-6.22866,0],[106.76458,-6.22731,0],[106.76594,-6.2269,0],[106.76623,-6.2259,0],[106.76689,-6.22532,0],[106.76556,-6.22318,0],[106.76592,-6.22247,0],[106.76471,-6.2224,0]]]},"properties":{"zone_id":"pesanggrahan","zone_name":"Pesanggrahan","source":"BIG RBI","source_url":"https://geoservices.big.go.id/rbi/rest/services/BATASWILAYAH/BATAS_KECAMATAN_AR/MapServer/0/query"}}]}
